{"type": "FeatureCollection", "features": [ {"type": "Feature", "properties": {"norad_id": 39122, "name": "EUTELSAT 117 WEST A", "group": "eutelsat", "lat": -0.013496532372600746, "lon": -157.8077718478327, "alt_km": 35780.00076839306, "timestamp": "2025-12-11T15:53:39.213696+00:00", "meta": {"OBJECT_NAME": "EUTELSAT 117 WEST A", "OBJECT_ID": "2013-012A", "EPOCH": "2025-12-11T05:08:38.770368", "MEAN_MOTION": 1.00271255, "ECCENTRICITY": 0.00029878, "INCLINATION": 0.0133, "RA_OF_ASC_NODE": 6.2922, "ARG_OF_PERICENTER": 256.4978, "MEAN_ANOMALY": 137.7439, "EPHEMERIS_TYPE": 0, "CLASSIFICATION_TYPE": "U", "NORAD_CAT_ID": 39122, "ELEMENT_SET_NO": 999, "REV_AT_EPOCH": 4654, "BSTAR": 0, "MEAN_MOTION_DOT": -7e-08, "MEAN_MOTION_DDOT": 0}, "tle": {"line1": "1 39122U 13012A   25345.21433762 -.00000007  00000+0  00000+0 0  9997", "line2": "2 39122   0.0133   6.2922 0002987 256.4978 137.7439  1.00271255 46540"}}, "geometry": {"type": "Point", "coordinates": [-157.8077718478327, -0.013496532372600746]}}, {"type": "Feature", "properties": {"norad_id": 39163, "name": "EUTELSAT 7B", "group": "eutelsat", "lat": -0.06182047787117226, "lon": -33.970146756993934, "alt_km": 35766.767025880974, "timestamp": "2025-12-11T15:53:39.213708+00:00", "meta": {"OBJECT_NAME": "EUTELSAT 7B", "OBJECT_ID": "2013-022A", "EPOCH": "2025-12-11T04:59:03.776640", "MEAN_MOTION": 1.00272416, "ECCENTRICITY": 0.00046104, "INCLINATION": 0.0724, "RA_OF_ASC_NODE": 18.324, "ARG_OF_PERICENTER": 298.0075, "MEAN_ANOMALY": 205.5967, "EPHEMERIS_TYPE": 0, "CLASSIFICATION_TYPE": "U", "NORAD_CAT_ID": 39163, "ELEMENT_SET_NO": 999, "REV_AT_EPOCH": 4607, "BSTAR": 0, "MEAN_MOTION_DOT": 5.4e-07, "MEAN_MOTION_DDOT": 0}, "tle": {"line1": "1 39163U 13022A   25345.20768260  .00000054  00000+0  00000+0 0  9997", "line2": "2 39163   0.0724  18.3240 0004610 298.0075 205.5967  1.00272416 46071"}}, "geometry": {"type": "Point", "coordinates": [-33.970146756993934, -0.06182047787117226]}}, {"type": "Feature", "properties": {"norad_id": 39612, "name": "EXPRESS-AT1", "group": "eutelsat", "lat": 0.024812940370576887, "lon": 15.021430652313818, "alt_km": 35788.115671729276, "timestamp": "2025-12-11T15:53:39.213723+00:00", "meta": {"OBJECT_NAME": "EXPRESS-AT1", "OBJECT_ID": "2014-010A", "EPOCH": "2025-12-11T05:13:02.438976", "MEAN_MOTION": 1.00271146, "ECCENTRICITY": 4.682e-05, "INCLINATION": 0.0148, "RA_OF_ASC_NODE": 297.7669, "ARG_OF_PERICENTER": 272.9948, "MEAN_ANOMALY": 3.6718, "EPHEMERIS_TYPE": 0, "CLASSIFICATION_TYPE": "U", "NORAD_CAT_ID": 39612, "ELEMENT_SET_NO": 999, "REV_AT_EPOCH": 4293, "BSTAR": 0, "MEAN_MOTION_DOT": 8.5e-07, "MEAN_MOTION_DDOT": 0}, "tle": {"line1": "1 39612U 14010A   25345.21738934  .00000085  00000+0  00000+0 0  9994", "line2": "2 39612   0.0148 297.7669 0000468 272.9948   3.6718  1.00271146 42936"}}, "geometry": {"type": "Point", "coordinates": [15.021430652313818, 0.024812940370576887]}}, {"type": "Feature", "properties": {"norad_id": 39613, "name": "EXPRESS-AT2", "group": "eutelsat", "lat": 0.02371299542714379, "lon": 98.89438389084046, "alt_km": 35792.11454946047, "timestamp": "2025-12-11T15:53:39.213748+00:00", "meta": {"OBJECT_NAME": "EXPRESS-AT2", "OBJECT_ID": "2014-010B", "EPOCH": "2025-12-11T10:45:06.787872", "MEAN_MOTION": 1.00271927, "ECCENTRICITY": 0.0001431, "INCLINATION": 0.019, "RA_OF_ASC_NODE": 312.3221, "ARG_OF_PERICENTER": 324.7786, "MEAN_ANOMALY": 104.4523, "EPHEMERIS_TYPE": 0, "CLASSIFICATION_TYPE": "U", "NORAD_CAT_ID": 39613, "ELEMENT_SET_NO": 999, "REV_AT_EPOCH": 4261, "BSTAR": 0, "MEAN_MOTION_DOT": -2.74e-06, "MEAN_MOTION_DDOT": 0}, "tle": {"line1": "1 39613U 14010B   25345.44799523 -.00000274  00000+0  00000+0 0  9992", "line2": "2 39613   0.0190 312.3221 0001431 324.7786 104.4523  1.00271927 42615"}}, "geometry": {"type": "Point", "coordinates": [98.89438389084046, 0.02371299542714379]}}, {"type": "Feature", "properties": {"norad_id": 39773, "name": "EUTELSAT 3B", "group": "eutelsat", "lat": -0.02946763049190699, "lon": -37.80915152179466, "alt_km": 35787.14218738908, "timestamp": "2025-12-11T15:53:39.213762+00:00", "meta": {"OBJECT_NAME": "EUTELSAT 3B", "OBJECT_ID": "2014-030A", "EPOCH": "2025-12-10T23:49:46.953984", "MEAN_MOTION": 1.00272013, "ECCENTRICITY": 0.00046411, "INCLINATION": 0.0617, "RA_OF_ASC_NODE": 345.4375, "ARG_OF_PERICENTER": 243.1309, "MEAN_ANOMALY": 211.9454, "EPHEMERIS_TYPE": 0, "CLASSIFICATION_TYPE": "U", "NORAD_CAT_ID": 39773, "ELEMENT_SET_NO": 999, "REV_AT_EPOCH": 4218, "BSTAR": 0, "MEAN_MOTION_DOT": 2.5e-07, "MEAN_MOTION_DDOT": 0}, "tle": {"line1": "1 39773U 14030A   25344.99290456  .00000025  00000+0  00000+0 0  9994", "line2": "2 39773   0.0617 345.4375 0004641 243.1309 211.9454  1.00272013 42180"}}, "geometry": {"type": "Point", "coordinates": [-37.80915152179466, -0.02946763049190699]}}, {"type": "Feature", "properties": {"norad_id": 40425, "name": "EUTELSAT 115 WEST B", "group": "eutelsat", "lat": 0.006945463612312074, "lon": -155.87929404770577, "alt_km": 35785.844378255344, "timestamp": "2025-12-11T15:53:39.213775+00:00", "meta": {"OBJECT_NAME": "EUTELSAT 115 WEST B", "OBJECT_ID": "2015-010B", "EPOCH": "2025-12-10T23:16:05.182752", "MEAN_MOTION": 1.00269045, "ECCENTRICITY": 3.113e-05, "INCLINATION": 0.0085, "RA_OF_ASC_NODE": 151.2991, "ARG_OF_PERICENTER": 11.6564, "MEAN_ANOMALY": 151.0992, "EPHEMERIS_TYPE": 0, "CLASSIFICATION_TYPE": "U", "NORAD_CAT_ID": 40425, "ELEMENT_SET_NO": 999, "REV_AT_EPOCH": 3950, "BSTAR": 0, "MEAN_MOTION_DOT": -1.9e-07, "MEAN_MOTION_DDOT": 0}, "tle": {"line1": "1 40425U 15010B   25344.96950443 -.00000019  00000+0  00000+0 0  9999", "line2": "2 40425   0.0085 151.2991 0000311  11.6564 151.0992  1.00269045 39507"}}, "geometry": {"type": "Point", "coordinates": [-155.87929404770577, 0.006945463612312074]}}, {"type": "Feature", "properties": {"norad_id": 40875, "name": "EUTELSAT 8 WEST B", "group": "eutelsat", "lat": -0.06099752276737396, "lon": -48.91893803711299, "alt_km": 35774.72600834226, "timestamp": "2025-12-11T15:53:39.213786+00:00", "meta": {"OBJECT_NAME": "EUTELSAT 8 WEST B", "OBJECT_ID": "2015-039B", "EPOCH": "2025-12-11T03:11:59.032032", "MEAN_MOTION": 1.0027158, "ECCENTRICITY": 0.00041901, "INCLINATION": 0.0649, "RA_OF_ASC_NODE": 4.4095, "ARG_OF_PERICENTER": 256.7362, "MEAN_ANOMALY": 218.9643, "EPHEMERIS_TYPE": 0, "CLASSIFICATION_TYPE": "U", "NORAD_CAT_ID": 40875, "ELEMENT_SET_NO": 999, "REV_AT_EPOCH": 3777, "BSTAR": 0, "MEAN_MOTION_DOT": -6e-07, "MEAN_MOTION_DDOT": 0}, "tle": {"line1": "1 40875U 15039B   25345.13332213 -.00000060  00000+0  00000+0 0  9994", "line2": "2 40875   0.0649   4.4095 0004190 256.7362 218.9643  1.00271580 37773"}}, "geometry": {"type": "Point", "coordinates": [-48.91893803711299, -0.06099752276737396]}}, {"type": "Feature", "properties": {"norad_id": 41310, "name": "EUTELSAT 9B", "group": "eutelsat", "lat": -0.0419850772049302, "lon": -31.900393628105004, "alt_km": 35776.106646796026, "timestamp": "2025-12-11T15:53:39.213798+00:00", "meta": {"OBJECT_NAME": "EUTELSAT 9B", "OBJECT_ID": "2016-005A", "EPOCH": "2025-12-11T04:59:33.728928", "MEAN_MOTION": 1.00273032, "ECCENTRICITY": 0.00047985, "INCLINATION": 0.0412, "RA_OF_ASC_NODE": 60.4981, "ARG_OF_PERICENTER": 205.8314, "MEAN_ANOMALY": 257.753, "EPHEMERIS_TYPE": 0, "CLASSIFICATION_TYPE": "U", "NORAD_CAT_ID": 41310, "ELEMENT_SET_NO": 999, "REV_AT_EPOCH": 3623, "BSTAR": 0, "MEAN_MOTION_DOT": 6.8e-07, "MEAN_MOTION_DDOT": 0}, "tle": {"line1": "1 41310U 16005A   25345.20802927  .00000068  00000+0  00000+0 0  9992", "line2": "2 41310   0.0412  60.4981 0004798 205.8314 257.7530  1.00273032 36238"}}, "geometry": {"type": "Point", "coordinates": [-31.900393628105004, -0.0419850772049302]}}, {"type": "Feature", "properties": {"norad_id": 41382, "name": "EUTELSAT 65 WEST A", "group": "eutelsat", "lat": -0.06286069306801133, "lon": -106.17771014615293, "alt_km": 35775.38678142605, "timestamp": "2025-12-11T15:53:39.213810+00:00", "meta": {"OBJECT_NAME": "EUTELSAT 65 WEST A", "OBJECT_ID": "2016-014A", "EPOCH": "2025-12-11T03:56:38.654592", "MEAN_MOTION": 1.00272332, "ECCENTRICITY": 0.00025742, "INCLINATION": 0.0508, "RA_OF_ASC_NODE": 10.2619, "ARG_OF_PERICENTER": 256.8419, "MEAN_ANOMALY": 166.9856, "EPHEMERIS_TYPE": 0, "CLASSIFICATION_TYPE": "U", "NORAD_CAT_ID": 41382, "ELEMENT_SET_NO": 999, "REV_AT_EPOCH": 3565, "BSTAR": 0, "MEAN_MOTION_DOT": -2.7e-06, "MEAN_MOTION_DDOT": 0}, "tle": {"line1": "1 41382U 16014A   25345.16433628 -.00000270  00000+0  00000+0 0  9990", "line2": "2 41382   0.0508  10.2619 0002574 256.8419 166.9856  1.00272332 35655"}}, "geometry": {"type": "Point", "coordinates": [-106.17771014615293, -0.06286069306801133]}}, {"type": "Feature", "properties": {"norad_id": 41589, "name": "EUTELSAT 117 WEST B", "group": "eutelsat", "lat": 0.014031308596147322, "lon": -157.9596851114081, "alt_km": 35786.66882933119, "timestamp": "2025-12-11T15:53:39.213822+00:00", "meta": {"OBJECT_NAME": "EUTELSAT 117 WEST B", "OBJECT_ID": "2016-038B", "EPOCH": "2025-12-10T23:15:27.743040", "MEAN_MOTION": 1.00269754, "ECCENTRICITY": 3.232e-05, "INCLINATION": 0.0411, "RA_OF_ASC_NODE": 158.7318, "ARG_OF_PERICENTER": 311.552, "MEAN_ANOMALY": 201.5309, "EPHEMERIS_TYPE": 0, "CLASSIFICATION_TYPE": "U", "NORAD_CAT_ID": 41589, "ELEMENT_SET_NO": 999, "REV_AT_EPOCH": 3477, "BSTAR": 0, "MEAN_MOTION_DOT": -6e-08, "MEAN_MOTION_DDOT": 0}, "tle": {"line1": "1 41589U 16038B   25344.96907110 -.00000006  00000+0  00000+0 0  9991", "line2": "2 41589   0.0411 158.7318 0000323 311.5520 201.5309  1.00269754 34778"}}, "geometry": {"type": "Point", "coordinates": [-157.9596851114081, 0.014031308596147322]}}]}